NORAD_CAT_ID,OBJECT_NAME,OBJECT_TYPE,EPOCH,MEAN_MOTION,ECCENTRICITY,INCLINATION,RA_OF_ASC_NODE,ARG_OF_PERICENTER,MEAN_ANOMALY,BSTAR,MEAN_MOTION_DOT,MEAN_MOTION_DDOT,TLE_LINE0,TLE_LINE1,TLE_LINE2,SEMIMAJOR_AXIS,PERIOD,APOGEE,PERIGEE,DECAYED
52262.0,STARLINK-3761,PAYLOAD,2022-09-04 14:00:01,15.08859775,0.0001837,53.2159,104.7098,69.4113,343.042,-0.0003818,-6.363e-05,0.0,0 STARLINK-3761,1 52262U 22041B   22247.58335648 -.00006363  00000-0 -38180-3 0  9998,2 52262  53.2159 104.7098 0001837  69.4113 343.0420 15.08859775 22034,6917.82,95.436,540.956,538.414,0.0
52262.0,STARLINK-3761,PAYLOAD,2022-09-04 20:00:01,15.08845653,0.000183,53.2157,103.589,63.549,267.5226,-0.00086208,-0.00013984,0.0,0 STARLINK-3761,1 52262U 22041B   22247.83334491 -.00013984  00000-0 -86208-3 0  9992,2 52262  53.2157 103.5890 0001830  63.5490 267.5226 15.08845653 22062,6917.863,95.437,540.994,538.462,0.0
52262.0,STARLINK-3761,PAYLOAD,2022-09-05 14:00:01,15.08825236,0.0001658,53.2156,100.2209,68.9263,18.2599,0.0018402,0.00029108,0.0,0 STARLINK-3761,1 52262U 22041B   22248.58334491  .00029108  00000-0  18402-2 0  9998,2 52262  53.2156 100.2209 0001658  68.9263  18.2599 15.08825236 22186,6917.926,95.438,540.938,538.644,0.0
52262.0,STARLINK-3761,PAYLOAD,2022-09-05 22:00:00,15.08843393,0.0001751999999999,53.2155,98.7264,61.4935,37.2817,-0.0013720999999999,-0.00022061,0.0,0 STARLINK-3761,1 52262U 22041B   22248.91667824 -.00022061  00000-0 -13721-2 0  9996,2 52262  53.2155  98.7264 0001752  61.4935  37.2817 15.08843393  1305,6917.87,95.437,540.947,538.523,0.0
52262.0,STARLINK-3761,PAYLOAD,2022-09-06 06:00:00,15.08835576,0.0001606,53.2152,97.229,61.69,48.6718,-0.0021506,-0.00034348,0.0,0 STARLINK-3761,1 52262U 22041B   22249.25001157 -.00034348  00000-0 -21506-2 0  9996,2 52262  53.2152  97.2290 0001606  61.6900  48.6718 15.08835576 22287,6917.894,95.438,540.87,538.648,0.0
52262.0,STARLINK-3761,PAYLOAD,2022-09-06 14:00:01,15.08821472,0.0001598,53.2153,95.7319,68.0914,53.8436,0.0012693,0.0001996,0.0,0 STARLINK-3761,1 52262U 22041B   22249.58334491  .00019960  00000-0  12693-2 0  9990,2 52262  53.2153  95.7319 0001598  68.0914  53.8436 15.08821472  1304,6917.937,95.439,540.908,538.697,0.0
52262.0,STARLINK-3761,PAYLOAD,2022-09-06 22:00:00,15.08819657,0.0001719,53.2152,94.2374,60.4233,73.0932,0.00099108,0.00015511,0.0,0 STARLINK-3761,1 52262U 22041B   22249.91667824  .00015511  00000-0  99108-3 0  9991,2 52262  53.2152  94.2374 0001719  60.4233  73.0932 15.08819657 22381,6917.943,95.439,540.997,538.618,0.0
52262.0,STARLINK-3761,PAYLOAD,2022-09-07 14:00:01,15.0884303,0.000166,53.2152,91.2427,67.7418,88.9391,0.00082838,0.00012921,0.0,0 STARLINK-3761,1 52262U 22041B   22250.58334491  .00012921  00000-0  82838-3 0  9991,2 52262  53.2152  91.2427 0001660  67.7418  88.9391 15.08843030  1302,6917.871,95.437,540.884,538.5880000000002,0.0
52262.0,STARLINK-3761,PAYLOAD,2022-09-07 22:00:00,15.08836295,0.0001768,53.2152,89.74799999999998,59.4313,108.8553,0.0011909,0.00018714,0.0,0 STARLINK-3761,1 52262U 22041B   22250.91667824  .00018714  00000-0  11909-2 0  9993,2 52262  53.2152  89.7480 0001768  59.4313 108.8553 15.08836295  1301,6917.892,95.438,540.98,538.534,0.0
52262.0,STARLINK-3761,PAYLOAD,2022-09-08 06:00:00,15.08862081,0.0001609,53.2151,88.2502,60.6116,119.2751,-0.0034108,-0.00054196,0.0,0 STARLINK-3761,1 52262U 22041B   22251.25001157 -.00054196  00000-0 -34108-2 0  9994,2 52262  53.2151  88.2502 0001609  60.6116 119.2751 15.08862081 22589,6917.813,95.436,540.7909999999998,538.565,0.0
52262.0,STARLINK-3761,PAYLOAD,2022-09-08 14:00:01,15.08837302,0.0001609,53.2154,86.7533,65.4147,126.0635,0.00042083,6.415e-05,0.0,0 STARLINK-3761,1 52262U 22041B   22251.58334491  .00006415  00000-0  42083-3 0  9991,2 52262  53.2154  86.7533 0001609  65.4147 126.0635 15.08837302  1308,6917.889,95.438,540.867,538.641,0.0
52262.0,STARLINK-3761,PAYLOAD,2022-09-08 22:00:00,15.08823734,0.0001737,53.2154,85.2584,56.7619,146.3173,0.0021482,0.00034051,0.0,0 STARLINK-3761,1 52262U 22041B   22251.91667824  .00034051  00000-0  21482-2 0  9993,2 52262  53.2154  85.2584 0001737  56.7619 146.3173 15.08823734 22687,6917.93,95.439,540.997,538.5930000000002,0.0
52262.0,STARLINK-3761,PAYLOAD,2022-09-09 14:00:01,15.08835945,0.0001543,53.2157,82.2637,63.0734,163.1961,0.00021764,3.177e-05,0.0,0 STARLINK-3761,1 52262U 22041B   22252.58334491  .00003177  00000-0  21764-3 0  9997,2 52262  53.2157  82.2637 0001543  63.0734 163.1961 15.08835945  1305,6917.893,95.438,540.825,538.69,0.0
52262.0,STARLINK-3761,PAYLOAD,2022-09-09 22:00:00,15.0881723,0.0001692,53.2157,80.7687,54.5464,183.3194,0.0025301,0.00040183,0.0,0 STARLINK-3761,1 52262U 22041B   22252.91667824  .00040183  00000-0  25301-2 0  9991,2 52262  53.2157  80.7687 0001692  54.5464 183.3194 15.08817230  1302,6917.95,95.439,540.986,538.644,0.0
52262.0,STARLINK-3761,PAYLOAD,2022-09-10 14:00:01,15.08847746,0.0001626,53.2159,77.7741,64.0761,196.9726,-0.0014962,-0.00024026,0.0,0 STARLINK-3761,1 52262U 22041B   22253.58334491 -.00024026  00000-0 -14962-2 0  9997,2 52262  53.2159  77.7741 0001626  64.0761 196.9726 15.08847746  1300,6917.857,95.437,540.847,538.597,0.0
52262.0,STARLINK-3761,PAYLOAD,2022-09-10 22:00:00,15.08808606,0.0001792,53.2159,76.2794,56.8708,215.7727,0.0027267,0.00043337,0.0,0 STARLINK-3761,1 52262U 22041B   22253.91667824  .00043337  00000-0  27267-2 0  9999,2 52262  53.2159  76.2794 0001792  56.8708 215.7727 15.08808606  1309,6917.976,95.44,541.081,538.602,0.0
52262.0,STARLINK-3761,PAYLOAD,2022-09-11 14:00:01,15.08856724,0.0001636,53.2161,73.2846,65.2093,230.599,-0.00047413,-7.829e-05,0.0,0 STARLINK-3761,1 52262U 22041B   22254.58334491 -.00007829  00000-0 -47413-3 0  9998,2 52262  53.2161  73.2846 0001636  65.2093 230.5990 15.08856724 23085,6917.829000000002,95.436,540.826,538.563,0.0
52262.0,STARLINK-3761,PAYLOAD,2022-09-11 22:00:00,15.08838578,0.0001721999999999,53.2159,71.7896,57.2557,250.1676,0.0013805,0.0002174999999999,0.0,0 STARLINK-3761,1 52262U 22041B   22254.91667824  .00021750  00000-0  13805-2 0  9998,2 52262  53.2159  71.7896 0001722  57.2557 250.1676 15.08838578  1309,6917.885,95.438,540.941,538.558,0.0
52262.0,STARLINK-3761,PAYLOAD,2022-09-12 14:00:01,15.08855683,0.0001520999999999,53.2161,68.7953,63.4301,267.188,-0.00080786,-0.00013128,0.0,0 STARLINK-3761,1 52262U 22041B   22255.58334491 -.00013128  00000-0 -80786-3 0  9998,2 52262  53.2161  68.7953 0001521  63.4301 267.1880 15.08855683  1306,6917.831999999999,95.437,540.75,538.645,0.0
52262.0,STARLINK-3761,PAYLOAD,2022-09-12 22:00:00,15.08836201,0.0001605,53.2159,67.3006,55.2248,287.004,0.0014534,0.00022916,0.0,0 STARLINK-3761,1 52262U 22041B   22255.91667824  .00022916  00000-0  14534-2 0  9994,2 52262  53.2159  67.3006 0001605  55.2248 287.0040 15.08836201 23284,6917.892,95.438,540.867,538.6469999999998,0.0
52262.0,STARLINK-3761,PAYLOAD,2022-09-13 14:00:01,15.08858792,0.0001447,53.2162,64.3063,60.2825,305.1391,-0.0011648,-0.00018787,0.0,0 STARLINK-3761,1 52262U 22041B   22256.58334491 -.00018787  00000-0 -11648-2 0  9995,2 52262  53.2162  64.3063 0001447  60.2825 305.1391 15.08858792  1308,6917.823,95.436,540.689,538.687,0.0
52262.0,STARLINK-3761,PAYLOAD,2022-09-13 16:00:00,15.08864684,0.0001530999999999,53.2164,63.9334,57.828,40.4949,-0.0026035999999999,-0.00041514,0.0,0 STARLINK-3761,1 52262U 22041B   22256.66667824 -.00041514  00000-0 -26036-2 0  9994,2 52262  53.2164  63.9334 0001531  57.8280  40.4949 15.08864684 23407,6917.805,95.436,540.729,538.611,0.0
52262.0,STARLINK-3761,PAYLOAD,2022-09-13 22:00:00,15.08819815,0.0001626,53.2158,62.8111,54.6714,322.3582,0.0010399,0.00016292,0.0,0 STARLINK-3761,1 52262U 22041B   22256.91667824  .00016292  00000-0  10399-2 0  9990,2 52262  53.2158  62.8111 0001626  54.6714 322.3582 15.08819815  1309,6917.941999999999,95.439,540.932,538.682,0.0
52262.0,STARLINK-3761,PAYLOAD,2022-09-14 14:00:01,15.08837761,0.0001513,53.2176,59.8212,63.2793,336.8661,-0.00010697,-1.99e-05,0.0,0 STARLINK-3761,1 52262U 22041B   22257.58334491 -.00001990  00000-0 -10697-3 0  9998,2 52262  53.2176  59.8212 0001513  63.2793 336.8661 15.08837761  1303,6917.887,95.438,540.799,538.706,0.0
52262.0,STARLINK-3761,PAYLOAD,2022-09-14 22:00:00,15.0883447,0.0001668,53.216,58.3228,52.4338,359.3543,-4.0712e-05,-9.36e-06,0.0,0 STARLINK-3761,1 52262U 22041B   22257.91667824 -.00000936  00000-0 -40712-4 0  9995,2 52262  53.2160  58.3228 0001668  52.4338 359.3543 15.08834470 23591,6917.897,95.438,540.9159999999998,538.6080000000002,0.0
52262.0,STARLINK-3761,PAYLOAD,2022-09-15 14:00:01,15.08852445,0.0001585,53.2164,55.3283,57.3408,17.618,-0.0012344,-0.00019886,0.0,0 STARLINK-3761,1 52262U 22041B   22258.58334491 -.00019886  00000-0 -12344-2 0  9992,2 52262  53.2164  55.3283 0001585  57.3408  17.6180 15.08852445  1301,6917.842,95.437,540.804,538.611,0.0
52262.0,STARLINK-3761,PAYLOAD,2022-09-15 20:01:43,15.08840668,0.0001656,53.2177,54.1998,59.6848,300.4308,5.650100000000003e-05,6.11e-06,0.0,0 STARLINK-3761,1 52262U 22041B   22258.83453168  .00000611  00000-0  56501-4 0  9992,2 52262  53.2177  54.1998 0001656  59.6848 300.4308 15.08840668 22501,6917.878000000002,95.438,540.889,538.5980000000002,0.0
52262.0,STARLINK-3761,PAYLOAD,2022-09-16 03:58:39,15.08840485,0.0001715,53.2182,52.7137,57.578,302.5378,9.3808e-05,1.205e-05,0.0,0 STARLINK-3761,1 52262U 22041B   22259.16573097  .00001205  00000-0  93808-4 0  9994,2 52262  53.2182  52.7137 0001715  57.5780 302.5378 15.08840485 23771,6917.879,95.438,540.93,538.557,0.0
52262.0,STARLINK-3761,PAYLOAD,2022-09-16 10:20:11,15.08839225,0.0001723,53.2176,51.5226,69.7747,290.343,5.7552e-05,6.28e-06,0.0,0 STARLINK-3761,1 52262U 22041B   22259.43069305  .00000628  00000-0  57552-4 0  9990,2 52262  53.2176  51.5226 0001723  69.7747 290.3430 15.08839225 22599,6917.8830000000025,95.438,540.94,538.556,0.0
